{
  "type": "FeatureCollection",
  "features": [
    {
      "type": "Feature",
      "properties": {
        "norad_id": 25590,
        "name": "COSMOS 2361",
        "group": "musson",
        "lat": 8.022103731031148,
        "lon": -9.363113207020096,
        "alt_km": 986.1872469024784,
        "timestamp": "2025-12-05T05:43:15.379231+00:00",
        "meta_object_name": "COSMOS 2361",
        "meta_object_id": "1998-076A",
        "meta_epoch": "2025-12-04T12:46:20.947296",
        "meta_mean_motion": 13.73216137,
        "meta_eccentricity": 0.0030147,
        "meta_inclination": 82.9341,
        "meta_ra_of_asc_node": 350.1574,
        "meta_arg_of_pericenter": 289.4583,
        "meta_mean_anomaly": 189.2779,
        "meta_ephemeris_type": 0,
        "meta_classification_type": "U",
        "meta_norad_cat_id": 25590,
        "meta_element_set_no": 999,
        "meta_rev_at_epoch": 34998,
        "meta_bstar": 9.2084e-05,
        "meta_mean_motion_dot": 1e-06,
        "meta_mean_motion_ddot": 0,
        "tle_line1": "1 25590U 98076A   25338.53218689  .00000100  00000+0  92084-4 0  9991",
        "tle_line2": "2 25590  82.9341 350.1574 0030147 289.4583 189.2779 13.73216137349989"
      },
      "geometry": {
        "type": "Point",
        "coordinates": [
          -9.363113207020096,
          8.022103731031148
        ]
      }
    },
    {
      "type": "Feature",
      "properties": {
        "norad_id": 26818,
        "name": "COSMOS 2378",
        "group": "musson",
        "lat": 54.7986641977161,
        "lon": 15.422660001245681,
        "alt_km": 1002.7770381337523,
        "timestamp": "2025-12-05T05:43:15.379254+00:00",
        "meta_object_name": "COSMOS 2378",
        "meta_object_id": "2001-023A",
        "meta_epoch": "2025-12-04T14:16:23.013120",
        "meta_mean_motion": 13.74141048,
        "meta_eccentricity": 0.0031973,
        "meta_inclination": 82.9279,
        "meta_ra_of_asc_node": 5.7647,
        "meta_arg_of_pericenter": 228.135,
        "meta_mean_anomaly": 245.068,
        "meta_ephemeris_type": 0,
        "meta_classification_type": "U",
        "meta_norad_cat_id": 26818,
        "meta_element_set_no": 999,
        "meta_rev_at_epoch": 22811,
        "meta_bstar": 9.8851e-05,
        "meta_mean_motion_dot": 1.08e-06,
        "meta_mean_motion_ddot": 0,
        "tle_line1": "1 26818U 01023A   25338.59471080  .00000108  00000+0  98851-4 0  9999",
        "tle_line2": "2 26818  82.9279   5.7647 0031973 228.1350 245.0680 13.74141048228119"
      },
      "geometry": {
        "type": "Point",
        "coordinates": [
          15.422660001245681,
          54.7986641977161
        ]
      }
    },
    {
      "type": "Feature",
      "properties": {
        "norad_id": 27436,
        "name": "COSMOS 2389",
        "group": "musson",
        "lat": -54.852089626260145,
        "lon": 142.66225358875354,
        "alt_km": 1019.8094484376506,
        "timestamp": "2025-12-05T05:43:15.379267+00:00",
        "meta_object_name": "COSMOS 2389",
        "meta_object_id": "2002-026A",
        "meta_epoch": "2025-12-04T11:40:35.799744",
        "meta_mean_motion": 13.75153289,
        "meta_eccentricity": 0.0047764,
        "meta_inclination": 82.9495,
        "meta_ra_of_asc_node": 313.0951,
        "meta_arg_of_pericenter": 83.161,
        "meta_mean_anomaly": 32.0491,
        "meta_ephemeris_type": 0,
        "meta_classification_type": "U",
        "meta_norad_cat_id": 27436,
        "meta_element_set_no": 999,
        "meta_rev_at_epoch": 18035,
        "meta_bstar": 6.7142e-05,
        "meta_mean_motion_dot": 8e-07,
        "meta_mean_motion_ddot": 0,
        "tle_line1": "1 27436U 02026A   25338.48652546  .00000080  00000+0  67142-4 0  9994",
        "tle_line2": "2 27436  82.9495 313.0951 0047764  83.1610  32.0491 13.75153289180350"
      },
      "geometry": {
        "type": "Point",
        "coordinates": [
          142.66225358875354,
          -54.852089626260145
        ]
      }
    },
    {
      "type": "Feature",
      "properties": {
        "norad_id": 27818,
        "name": "COSMOS 2398",
        "group": "musson",
        "lat": -79.93873706556165,
        "lon": 142.46721364085562,
        "alt_km": 1013.9286247106647,
        "timestamp": "2025-12-05T05:43:15.379279+00:00",
        "meta_object_name": "COSMOS 2398",
        "meta_object_id": "2003-023A",
        "meta_epoch": "2025-12-04T15:17:44.872224",
        "meta_mean_motion": 13.72384546,
        "meta_eccentricity": 0.0032272,
        "meta_inclination": 82.9476,
        "meta_ra_of_asc_node": 278.6693,
        "meta_arg_of_pericenter": 133.5525,
        "meta_mean_anomaly": 41.1053,
        "meta_ephemeris_type": 0,
        "meta_classification_type": "U",
        "meta_norad_cat_id": 27818,
        "meta_element_set_no": 999,
        "meta_rev_at_epoch": 12705,
        "meta_bstar": 7.1532e-05,
        "meta_mean_motion_dot": 8.1e-07,
        "meta_mean_motion_ddot": 0,
        "tle_line1": "1 27818U 03023A   25338.63732491  .00000081  00000+0  71532-4 0  9990",
        "tle_line2": "2 27818  82.9476 278.6693 0032272 133.5525  41.1053 13.72384546127057"
      },
      "geometry": {
        "type": "Point",
        "coordinates": [
          142.46721364085562,
          -79.93873706556165
        ]
      }
    },
    {
      "type": "Feature",
      "properties": {
        "norad_id": 28380,
        "name": "COSMOS 2407",
        "group": "musson",
        "lat": -8.19852702781057,
        "lon": -142.5736813529871,
        "alt_km": 977.2997472097986,
        "timestamp": "2025-12-05T05:43:15.379291+00:00",
        "meta_object_name": "COSMOS 2407",
        "meta_object_id": "2004-028A",
        "meta_epoch": "2025-12-04T16:05:12.555744",
        "meta_mean_motion": 13.76312357,
        "meta_eccentricity": 0.0040515,
        "meta_inclination": 82.9614,
        "meta_ra_of_asc_node": 218.8668,
        "meta_arg_of_pericenter": 76.7297,
        "meta_mean_anomaly": 342.4544,
        "meta_ephemeris_type": 0,
        "meta_classification_type": "U",
        "meta_norad_cat_id": 28380,
        "meta_element_set_no": 999,
        "meta_rev_at_epoch": 7312,
        "meta_bstar": 0.00011516,
        "meta_mean_motion_dot": 1.29e-06,
        "meta_mean_motion_ddot": 0,
        "tle_line1": "1 28380U 04028A   25338.67028421  .00000129  00000+0  11516-3 0  9994",
        "tle_line2": "2 28380  82.9614 218.8668 0040515  76.7297 342.4544 13.76312357 73122"
      },
      "geometry": {
        "type": "Point",
        "coordinates": [
          -142.5736813529871,
          -8.19852702781057
        ]
      }
    },
    {
      "type": "Feature",
      "properties": {
        "norad_id": 28521,
        "name": "COSMOS 2414",
        "group": "musson",
        "lat": -55.927005014275245,
        "lon": 179.78959929807533,
        "alt_km": 966.5307866904204,
        "timestamp": "2025-12-05T05:43:15.379302+00:00",
        "meta_object_name": "COSMOS 2414",
        "meta_object_id": "2005-002A",
        "meta_epoch": "2025-12-04T16:09:12.185280",
        "meta_mean_motion": 13.87901416,
        "meta_eccentricity": 0.00404,
        "meta_inclination": 82.9499,
        "meta_ra_of_asc_node": 190.7594,
        "meta_arg_of_pericenter": 162.3516,
        "meta_mean_anomaly": 197.9062,
        "meta_ephemeris_type": 0,
        "meta_classification_type": "U",
        "meta_norad_cat_id": 28521,
        "meta_element_set_no": 999,
        "meta_rev_at_epoch": 5683,
        "meta_bstar": 0.0001034,
        "meta_mean_motion_dot": 1.4e-06,
        "meta_mean_motion_ddot": 0,
        "tle_line1": "1 28521U 05002A   25338.67305770  .00000140  00000+0  10340-3 0  9996",
        "tle_line2": "2 28521  82.9499 190.7594 0040400 162.3516 197.9062 13.87901416 56834"
      },
      "geometry": {
        "type": "Point",
        "coordinates": [
          179.78959929807533,
          -55.927005014275245
        ]
      }
    },
    {
      "type": "Feature",
      "properties": {
        "norad_id": 32052,
        "name": "COSMOS 2429",
        "group": "musson",
        "lat": 60.38039092959677,
        "lon": 1.355324577632441,
        "alt_km": 946.189230606773,
        "timestamp": "2025-12-05T05:43:15.379312+00:00",
        "meta_object_name": "COSMOS 2429",
        "meta_object_id": "2007-038A",
        "meta_epoch": "2025-12-04T13:42:37.355616",
        "meta_mean_motion": 13.75148197,
        "meta_eccentricity": 0.0039582,
        "meta_inclination": 82.9804,
        "meta_ra_of_asc_node": 349.331,
        "meta_arg_of_pericenter": 60.0782,
        "meta_mean_anomaly": 300.4296,
        "meta_ephemeris_type": 0,
        "meta_classification_type": "U",
        "meta_norad_cat_id": 32052,
        "meta_element_set_no": 999,
        "meta_rev_at_epoch": 91490,
        "meta_bstar": 7.4425e-05,
        "meta_mean_motion_dot": 8.7e-07,
        "meta_mean_motion_ddot": 0,
        "tle_line1": "1 32052U 07038A   25338.57126569  .00000087  00000+0  74425-4 0  9992",
        "tle_line2": "2 32052  82.9804 349.3310 0039582  60.0782 300.4296 13.75148197914901"
      },
      "geometry": {
        "type": "Point",
        "coordinates": [
          1.355324577632441,
          60.38039092959677
        ]
      }
    },
    {
      "type": "Feature",
      "properties": {
        "norad_id": 35635,
        "name": "COSMOS 2454",
        "group": "musson",
        "lat": -60.592164757210156,
        "lon": 161.6593788918552,
        "alt_km": 949.6138757484241,
        "timestamp": "2025-12-05T05:43:15.379323+00:00",
        "meta_object_name": "COSMOS 2454",
        "meta_object_id": "2009-039A",
        "meta_epoch": "2025-12-04T14:44:47.476896",
        "meta_mean_motion": 13.89927158,
        "meta_eccentricity": 0.0020498,
        "meta_inclination": 82.9557,
        "meta_ra_of_asc_node": 174.8042,
        "meta_arg_of_pericenter": 95.4609,
        "meta_mean_anomaly": 323.1065,
        "meta_ephemeris_type": 0,
        "meta_classification_type": "U",
        "meta_norad_cat_id": 35635,
        "meta_element_set_no": 999,
        "meta_rev_at_epoch": 83037,
        "meta_bstar": 9.1788e-05,
        "meta_mean_motion_dot": 1.29e-06,
        "meta_mean_motion_ddot": 0,
        "tle_line1": "1 35635U 09039A   25338.61443839  .00000129  00000+0  91788-4 0  9990",
        "tle_line2": "2 35635  82.9557 174.8042 0020498  95.4609 323.1065 13.89927158830376"
      },
      "geometry": {
        "type": "Point",
        "coordinates": [
          161.6593788918552,
          -60.592164757210156
        ]
      }
    },
    {
      "type": "Feature",
      "properties": {
        "norad_id": 36519,
        "name": "COSMOS 2463",
        "group": "musson",
        "lat": 66.80053766983761,
        "lon": -164.52718977175093,
        "alt_km": 1011.8107899561264,
        "timestamp": "2025-12-05T05:43:15.379333+00:00",
        "meta_object_name": "COSMOS 2463",
        "meta_object_id": "2010-017A",
        "meta_epoch": "2025-12-04T15:44:30.007104",
        "meta_mean_motion": 13.71648077,
        "meta_eccentricity": 0.003507,
        "meta_inclination": 82.962,
        "meta_ra_of_asc_node": 32.6527,
        "meta_arg_of_pericenter": 311.2467,
        "meta_mean_anomaly": 166.1745,
        "meta_ephemeris_type": 0,
        "meta_classification_type": "U",
        "meta_norad_cat_id": 36519,
        "meta_element_set_no": 999,
        "meta_rev_at_epoch": 78126,
        "meta_bstar": 9.5334e-05,
        "meta_mean_motion_dot": 1.01e-06,
        "meta_mean_motion_ddot": 0,
        "tle_line1": "1 36519U 10017A   25338.65590286  .00000101  00000+0  95334-4 0  9994",
        "tle_line2": "2 36519  82.9620  32.6527 0035070 311.2467 166.1745 13.71648077781265"
      },
      "geometry": {
        "type": "Point",
        "coordinates": [
          -164.52718977175093,
          66.80053766983761
        ]
      }
    }
  ]
}